{
  "type": "FeatureCollection",
  "features": [
    {
      "type": "Feature",
      "properties": {
        "norad_id": 34854,
        "name": "COSMOS 2251 DEB",
        "group": "cosmos-2251-debris",
        "lat": 66.30301660095436,
        "lon": -85.5987475291905,
        "alt_km": 666.3451175523951,
        "timestamp": "2025-12-24T16:52:41.932829+00:00",
        "meta_object_name": "COSMOS 2251 DEB",
        "meta_object_id": "1993-036ABY",
        "meta_epoch": "2025-12-24T03:22:47.701632",
        "meta_mean_motion": 14.76734417,
        "meta_eccentricity": 0.00659344,
        "meta_inclination": 74.0296,
        "meta_ra_of_asc_node": 136.2324,
        "meta_arg_of_pericenter": 245.6439,
        "meta_mean_anomaly": 113.7843,
        "meta_ephemeris_type": 0,
        "meta_classification_type": "U",
        "meta_norad_cat_id": 34854,
        "meta_element_set_no": 999,
        "meta_rev_at_epoch": 72050,
        "meta_bstar": 0.00083194152,
        "meta_mean_motion_dot": 6.009e-05,
        "meta_mean_motion_ddot": 0,
        "tle_line1": "1 34854U 93036ABY 25358.14082988  .00006009  00000+0  83194-3 0  9990",
        "tle_line2": "2 34854  74.0296 136.2324 0065934 245.6439 113.7843 14.76734417720500"
      },
      "geometry": {
        "type": "Point",
        "coordinates": [
          -85.5987475291905,
          66.30301660095436
        ]
      }
    },
    {
      "type": "Feature",
      "properties": {
        "norad_id": 34856,
        "name": "COSMOS 2251 DEB",
        "group": "cosmos-2251-debris",
        "lat": 18.217656525704797,
        "lon": 65.65706906799446,
        "alt_km": 568.0673592008989,
        "timestamp": "2025-12-24T16:52:41.932840+00:00",
        "meta_object_name": "COSMOS 2251 DEB",
        "meta_object_id": "1993-036ACA",
        "meta_epoch": "2025-12-24T04:10:55.140384",
        "meta_mean_motion": 15.06616552,
        "meta_eccentricity": 0.00311937,
        "meta_inclination": 73.9961,
        "meta_ra_of_asc_node": 61.325,
        "meta_arg_of_pericenter": 196.9043,
        "meta_mean_anomaly": 194.1311,
        "meta_ephemeris_type": 0,
        "meta_classification_type": "U",
        "meta_norad_cat_id": 34856,
        "meta_element_set_no": 999,
        "meta_rev_at_epoch": 89284,
        "meta_bstar": 0.0017474499,
        "meta_mean_motion_dot": 0.00026244,
        "meta_mean_motion_ddot": 0,
        "tle_line1": "1 34856U 93036ACA 25358.17424931  .00026244  00000+0  17474-2 0  9993",
        "tle_line2": "2 34856  73.9961  61.3250 0031193 196.9043 194.1311 15.06616552892847"
      },
      "geometry": {
        "type": "Point",
        "coordinates": [
          65.65706906799446,
          18.217656525704797
        ]
      }
    },
    {
      "type": "Feature",
      "properties": {
        "norad_id": 34857,
        "name": "COSMOS 2251 DEB",
        "group": "cosmos-2251-debris",
        "lat": 30.25660347827585,
        "lon": -105.61617644310245,
        "alt_km": 669.6270423259666,
        "timestamp": "2025-12-24T16:52:41.932851+00:00",
        "meta_object_name": "COSMOS 2251 DEB",
        "meta_object_id": "1993-036ACB",
        "meta_epoch": "2025-12-23T07:32:58.871328",
        "meta_mean_motion": 14.58991882,
        "meta_eccentricity": 0.00654006,
        "meta_inclination": 74.0154,
        "meta_ra_of_asc_node": 86.6575,
        "meta_arg_of_pericenter": 209.1339,
        "meta_mean_anomaly": 208.8185,
        "meta_ephemeris_type": 0,
        "meta_classification_type": "U",
        "meta_norad_cat_id": 34857,
        "meta_element_set_no": 999,
        "meta_rev_at_epoch": 88055,
        "meta_bstar": 0.0010820228,
        "meta_mean_motion_dot": 5.205e-05,
        "meta_mean_motion_ddot": 0,
        "tle_line1": "1 34857U 93036ACB 25357.31457027  .00005205  00000+0  10820-2 0  9993",
        "tle_line2": "2 34857  74.0154  86.6575 0065400 209.1339 208.8185 14.58991882880552"
      },
      "geometry": {
        "type": "Point",
        "coordinates": [
          -105.61617644310245,
          30.25660347827585
        ]
      }
    },
    {
      "type": "Feature",
      "properties": {
        "norad_id": 34859,
        "name": "COSMOS 2251 DEB",
        "group": "cosmos-2251-debris",
        "lat": 20.265982009226576,
        "lon": -39.19426348953105,
        "alt_km": 515.1728880730916,
        "timestamp": "2025-12-24T16:52:41.932862+00:00",
        "meta_object_name": "COSMOS 2251 DEB",
        "meta_object_id": "1993-036ACD",
        "meta_epoch": "2025-12-24T04:10:42.368736",
        "meta_mean_motion": 15.16428832,
        "meta_eccentricity": 0.00014059,
        "meta_inclination": 74.0269,
        "meta_ra_of_asc_node": 315.8379,
        "meta_arg_of_pericenter": 30.9483,
        "meta_mean_anomaly": 342.6844,
        "meta_ephemeris_type": 0,
        "meta_classification_type": "U",
        "meta_norad_cat_id": 34859,
        "meta_element_set_no": 999,
        "meta_rev_at_epoch": 88532,
        "meta_bstar": 0.0038295691,
        "meta_mean_motion_dot": 0.00075227,
        "meta_mean_motion_ddot": 0,
        "tle_line1": "1 34859U 93036ACD 25358.17410149  .00075227  00000+0  38296-2 0  9992",
        "tle_line2": "2 34859  74.0269 315.8379 0001405  30.9483 342.6844 15.16428832885329"
      },
      "geometry": {
        "type": "Point",
        "coordinates": [
          -39.19426348953105,
          20.265982009226576
        ]
      }
    },
    {
      "type": "Feature",
      "properties": {
        "norad_id": 34861,
        "name": "COSMOS 2251 DEB",
        "group": "cosmos-2251-debris",
        "lat": 71.06372272833333,
        "lon": 149.74147365526895,
        "alt_km": 549.0426591597397,
        "timestamp": "2025-12-24T16:52:41.932873+00:00",
        "meta_object_name": "COSMOS 2251 DEB",
        "meta_object_id": "1993-036ACF",
        "meta_epoch": "2025-12-23T20:27:37.747872",
        "meta_mean_motion": 15.03229594,
        "meta_eccentricity": 0.00082989,
        "meta_inclination": 74.0174,
        "meta_ra_of_asc_node": 28.1383,
        "meta_arg_of_pericenter": 17.2491,
        "meta_mean_anomaly": 160.8875,
        "meta_ephemeris_type": 0,
        "meta_classification_type": "U",
        "meta_norad_cat_id": 34861,
        "meta_element_set_no": 999,
        "meta_rev_at_epoch": 88259,
        "meta_bstar": 0.0024555152,
        "meta_mean_motion_dot": 0.00033393,
        "meta_mean_motion_ddot": 0,
        "tle_line1": "1 34861U 93036ACF 25357.85252023  .00033393  00000+0  24555-2 0  9995",
        "tle_line2": "2 34861  74.0174  28.1383 0008298  17.2491 160.8875 15.03229594882590"
      },
      "geometry": {
        "type": "Point",
        "coordinates": [
          149.74147365526895,
          71.06372272833333
        ]
      }
    },
    {
      "type": "Feature",
      "properties": {
        "norad_id": 34874,
        "name": "COSMOS 2251 DEB",
        "group": "cosmos-2251-debris",
        "lat": 61.98973749984389,
        "lon": 84.3424208234404,
        "alt_km": 728.2683084342743,
        "timestamp": "2025-12-24T16:52:41.932884+00:00",
        "meta_object_name": "COSMOS 2251 DEB",
        "meta_object_id": "1993-036ACM",
        "meta_epoch": "2025-12-24T05:08:17.744928",
        "meta_mean_motion": 14.36361305,
        "meta_eccentricity": 0.00505021,
        "meta_inclination": 74.0392,
        "meta_ra_of_asc_node": 52.692,
        "meta_arg_of_pericenter": 74.2101,
        "meta_mean_anomaly": 344.1486,
        "meta_ephemeris_type": 0,
        "meta_classification_type": "U",
        "meta_norad_cat_id": 34874,
        "meta_element_set_no": 999,
        "meta_rev_at_epoch": 87209,
        "meta_bstar": 0.00080771764,
        "meta_mean_motion_dot": 2.374e-05,
        "meta_mean_motion_ddot": 0,
        "tle_line1": "1 34874U 93036ACM 25358.21409427  .00002374  00000+0  80772-3 0  9991",
        "tle_line2": "2 34874  74.0392  52.6920 0050502  74.2101 344.1486 14.36361305872092"
      },
      "geometry": {
        "type": "Point",
        "coordinates": [
          84.3424208234404,
          61.98973749984389
        ]
      }
    },
    {
      "type": "Feature",
      "properties": {
        "norad_id": 34875,
        "name": "COSMOS 2251 DEB",
        "group": "cosmos-2251-debris",
        "lat": -54.548679965380025,
        "lon": 112.10742596997531,
        "alt_km": 727.2938936329447,
        "timestamp": "2025-12-24T16:52:41.932894+00:00",
        "meta_object_name": "COSMOS 2251 DEB",
        "meta_object_id": "1993-036ACN",
        "meta_epoch": "2025-12-24T03:03:13.111776",
        "meta_mean_motion": 14.48963213,
        "meta_eccentricity": 0.00162826,
        "meta_inclination": 74.0436,
        "meta_ra_of_asc_node": 136.8791,
        "meta_arg_of_pericenter": 259.8934,
        "meta_mean_anomaly": 278.6319,
        "meta_ephemeris_type": 0,
        "meta_classification_type": "U",
        "meta_norad_cat_id": 34875,
        "meta_element_set_no": 999,
        "meta_rev_at_epoch": 87920,
        "meta_bstar": 0.00046116262,
        "meta_mean_motion_dot": 1.723e-05,
        "meta_mean_motion_ddot": 0,
        "tle_line1": "1 34875U 93036ACN 25358.12723509  .00001723  00000+0  46116-3 0  9993",
        "tle_line2": "2 34875  74.0436 136.8791 0016282 259.8934 278.6319 14.48963213879200"
      },
      "geometry": {
        "type": "Point",
        "coordinates": [
          112.10742596997531,
          -54.548679965380025
        ]
      }
    }
  ]
}